SL-3 R/B                
1 13403U 82079B   26036.50624423  .00007516  00000+0  30377-3 0  9991
2 13403  81.1436 231.0680 0024158 275.7486  84.0993 15.24331948372796
SL-14 R/B               
1 13553U 82092B   26036.32893838  .00000819  00000+0  89208-4 0  9997
2 13553  82.5699 171.6578 0021522  51.4373 331.3379 14.86629713324126
SL-3 R/B                
1 13819U 83010B   26036.39386399  .00020484  00000+0  42770-3 0  9991
2 13819  81.1020  41.8091 0017709 154.1595 206.0538 15.45216273352957
SL-3 R/B                
1 14208U 83075B   26036.48145513  .00018166  00000+0  49060-3 0  9999
2 14208  97.6130  39.8654 0021574 350.6338   9.4501 15.37578400325206
COSMOS 1536             
1 14699U 84013A   26036.53869233  .00009884  00000+0  41286-3 0  9993
2 14699  82.5479 139.7913 0015073  40.1443 320.0904 15.23394243267729
SL-14 R/B               
1 14820U 84027B   26036.10147250  .00000558  00000+0  60934-4 0  9996
2 14820  82.5404 275.5828 0019533  82.0364 278.3068 14.85944265242797
SL-8 R/B                
1 15483U 85006B   26036.53358718  .00000363  00000+0  12905-3 0  9998
2 15483  74.0475 320.3172 0019594 244.2216 288.5106 14.37766872149406
SL-12 R/B(2)            
1 15772U 85042D   26036.33492933  .00000128  00000+0  79211-4 0  9998
2 15772  71.1084 156.0832 0035156 179.7565 240.8535 14.21972967109791
SL-14 R/B               
1 15945U 85069B   26036.50002824  .00000677  00000+0  73914-4 0  9997
2 15945  82.5240  55.2091 0017423 301.7799  58.1720 14.86395094168054
SL-16 R/B               
1 16182U 85097B   26036.42669459  .00000081  00000+0  64435-4 0  9993
2 16182  71.0013 208.4722 0009461 297.5011  85.8638 14.16596027 82663
SL-14 R/B               
1 16496U 86006B   26036.41824164  .00001054  00000+0  10931-3 0  9999
2 16496  82.5273 290.1113 0077229  20.7926 339.6401 14.86770244144418
COSMOS 1743             
1 16719U 86034A   26036.45062542  .00049714  00000+0  70529-3 0  9990
2 16719  82.5330 107.6021 0005214  60.5341 299.6433 15.56220202175234
