CCSDS_OMM_VERS = 2.0
CREATION_DATE  = 
ORIGINATOR     = 

OBJECT_NAME    = SL-3 R/B
OBJECT_ID      = 1982-079B
CENTER_NAME    = EARTH
REF_FRAME      = TEME
TIME_SYSTEM    = UTC
MEAN_ELEMENT_THEORY = SGP/SGP4

EPOCH          = 2026-02-05T12:08:59.501472
MEAN_MOTION    = 15.24331948
ECCENTRICITY   = .0024158
INCLINATION    = 81.1436
RA_OF_ASC_NODE = 231.0680
ARG_OF_PERICENTER = 275.7486
MEAN_ANOMALY   = 84.0993

EPHEMERIS_TYPE = 0
CLASSIFICATION_TYPE = U
NORAD_CAT_ID   = 13403
ELEMENT_SET_NO = 999
REV_AT_EPOCH   = 37279
BSTAR          = .30377E-3
MEAN_MOTION_DOT = .7516E-4
MEAN_MOTION_DDOT = 0

CCSDS_OMM_VERS = 2.0
CREATION_DATE  = 
ORIGINATOR     = 

OBJECT_NAME    = SL-14 R/B
OBJECT_ID      = 1982-092B
CENTER_NAME    = EARTH
REF_FRAME      = TEME
TIME_SYSTEM    = UTC
MEAN_ELEMENT_THEORY = SGP/SGP4

EPOCH          = 2026-02-05T07:53:40.276032
MEAN_MOTION    = 14.86629713
ECCENTRICITY   = .0021522
INCLINATION    = 82.5699
RA_OF_ASC_NODE = 171.6578
ARG_OF_PERICENTER = 51.4373
MEAN_ANOMALY   = 331.3379

EPHEMERIS_TYPE = 0
CLASSIFICATION_TYPE = U
NORAD_CAT_ID   = 13553
ELEMENT_SET_NO = 999
REV_AT_EPOCH   = 32412
BSTAR          = .89208E-4
MEAN_MOTION_DOT = .819E-5
MEAN_MOTION_DDOT = 0

CCSDS_OMM_VERS = 2.0
CREATION_DATE  = 
ORIGINATOR     = 

OBJECT_NAME    = SL-3 R/B
OBJECT_ID      = 1983-010B
CENTER_NAME    = EARTH
REF_FRAME      = TEME
TIME_SYSTEM    = UTC
MEAN_ELEMENT_THEORY = SGP/SGP4

EPOCH          = 2026-02-05T09:27:09.848736
MEAN_MOTION    = 15.45216273
ECCENTRICITY   = .0017709
INCLINATION    = 81.1020
RA_OF_ASC_NODE = 41.8091
ARG_OF_PERICENTER = 154.1595
MEAN_ANOMALY   = 206.0538

EPHEMERIS_TYPE = 0
CLASSIFICATION_TYPE = U
NORAD_CAT_ID   = 13819
ELEMENT_SET_NO = 999
REV_AT_EPOCH   = 35295
BSTAR          = .4277E-3
MEAN_MOTION_DOT = .20484E-3
MEAN_MOTION_DDOT = 0

CCSDS_OMM_VERS = 2.0
CREATION_DATE  = 
ORIGINATOR     = 

OBJECT_NAME    = SL-3 R/B
OBJECT_ID      = 1983-075B
CENTER_NAME    = EARTH
REF_FRAME      = TEME
TIME_SYSTEM    = UTC
MEAN_ELEMENT_THEORY = SGP/SGP4

EPOCH          = 2026-02-05T11:33:17.723232
MEAN_MOTION    = 15.37578400
ECCENTRICITY   = .0021574
INCLINATION    = 97.6130
RA_OF_ASC_NODE = 39.8654
ARG_OF_PERICENTER = 350.6338
MEAN_ANOMALY   = 9.4501

EPHEMERIS_TYPE = 0
CLASSIFICATION_TYPE = U
NORAD_CAT_ID   = 14208
ELEMENT_SET_NO = 999
REV_AT_EPOCH   = 32520
BSTAR          = .4906E-3
MEAN_MOTION_DOT = .18166E-3
MEAN_MOTION_DDOT = 0

CCSDS_OMM_VERS = 2.0
CREATION_DATE  = 
ORIGINATOR     = 

OBJECT_NAME    = COSMOS 1536
OBJECT_ID      = 1984-013A
CENTER_NAME    = EARTH
REF_FRAME      = TEME
TIME_SYSTEM    = UTC
MEAN_ELEMENT_THEORY = SGP/SGP4

EPOCH          = 2026-02-05T12:55:43.017312
MEAN_MOTION    = 15.23394243
ECCENTRICITY   = .0015073
INCLINATION    = 82.5479
RA_OF_ASC_NODE = 139.7913
ARG_OF_PERICENTER = 40.1443
MEAN_ANOMALY   = 320.0904

EPHEMERIS_TYPE = 0
CLASSIFICATION_TYPE = U
NORAD_CAT_ID   = 14699
ELEMENT_SET_NO = 999
REV_AT_EPOCH   = 26772
BSTAR          = .41286E-3
MEAN_MOTION_DOT = .9884E-4
MEAN_MOTION_DDOT = 0

CCSDS_OMM_VERS = 2.0
CREATION_DATE  = 
ORIGINATOR     = 

OBJECT_NAME    = SL-14 R/B
OBJECT_ID      = 1984-027B
CENTER_NAME    = EARTH
REF_FRAME      = TEME
TIME_SYSTEM    = UTC
MEAN_ELEMENT_THEORY = SGP/SGP4

EPOCH          = 2026-02-05T02:26:07.224000
MEAN_MOTION    = 14.85944265
ECCENTRICITY   = .0019533
INCLINATION    = 82.5404
RA_OF_ASC_NODE = 275.5828
ARG_OF_PERICENTER = 82.0364
MEAN_ANOMALY   = 278.3068

EPHEMERIS_TYPE = 0
CLASSIFICATION_TYPE = U
NORAD_CAT_ID   = 14820
ELEMENT_SET_NO = 999
REV_AT_EPOCH   = 24279
BSTAR          = .6093436E-4
MEAN_MOTION_DOT = .558E-5
MEAN_MOTION_DDOT = 0

CCSDS_OMM_VERS = 2.0
CREATION_DATE  = 
ORIGINATOR     = 

OBJECT_NAME    = SL-8 R/B
OBJECT_ID      = 1985-006B
CENTER_NAME    = EARTH
REF_FRAME      = TEME
TIME_SYSTEM    = UTC
MEAN_ELEMENT_THEORY = SGP/SGP4

EPOCH          = 2026-02-05T12:48:21.932352
MEAN_MOTION    = 14.37766872
ECCENTRICITY   = .0019594
INCLINATION    = 74.0475
RA_OF_ASC_NODE = 320.3172
ARG_OF_PERICENTER = 244.2216
MEAN_ANOMALY   = 288.5106

EPHEMERIS_TYPE = 0
CLASSIFICATION_TYPE = U
NORAD_CAT_ID   = 15483
ELEMENT_SET_NO = 999
REV_AT_EPOCH   = 14940
BSTAR          = .12905E-3
MEAN_MOTION_DOT = .363E-5
MEAN_MOTION_DDOT = 0

CCSDS_OMM_VERS = 2.0
CREATION_DATE  = 
ORIGINATOR     = 

OBJECT_NAME    = SL-12 R/B(2)
OBJECT_ID      = 1985-042D
CENTER_NAME    = EARTH
REF_FRAME      = TEME
TIME_SYSTEM    = UTC
MEAN_ELEMENT_THEORY = SGP/SGP4

EPOCH          = 2026-02-05T08:02:17.894112
MEAN_MOTION    = 14.21972967
ECCENTRICITY   = .0035156
INCLINATION    = 71.1084
RA_OF_ASC_NODE = 156.0832
ARG_OF_PERICENTER = 179.7565
MEAN_ANOMALY   = 240.8535

EPHEMERIS_TYPE = 0
CLASSIFICATION_TYPE = U
NORAD_CAT_ID   = 15772
ELEMENT_SET_NO = 999
REV_AT_EPOCH   = 10979
BSTAR          = .79211E-4
MEAN_MOTION_DOT = .128E-5
MEAN_MOTION_DDOT = 0

CCSDS_OMM_VERS = 2.0
CREATION_DATE  = 
ORIGINATOR     = 

OBJECT_NAME    = SL-14 R/B
OBJECT_ID      = 1985-069B
CENTER_NAME    = EARTH
REF_FRAME      = TEME
TIME_SYSTEM    = UTC
MEAN_ELEMENT_THEORY = SGP/SGP4

EPOCH          = 2026-02-05T12:00:02.439936
MEAN_MOTION    = 14.86395094
ECCENTRICITY   = .0017423
INCLINATION    = 82.5240
RA_OF_ASC_NODE = 55.2091
ARG_OF_PERICENTER = 301.7799
MEAN_ANOMALY   = 58.1720

EPHEMERIS_TYPE = 0
CLASSIFICATION_TYPE = U
NORAD_CAT_ID   = 15945
ELEMENT_SET_NO = 999
REV_AT_EPOCH   = 16805
BSTAR          = .73914E-4
MEAN_MOTION_DOT = .677E-5
MEAN_MOTION_DDOT = 0

CCSDS_OMM_VERS = 2.0
CREATION_DATE  = 
ORIGINATOR     = 

OBJECT_NAME    = SL-16 R/B
OBJECT_ID      = 1985-097B
CENTER_NAME    = EARTH
REF_FRAME      = TEME
TIME_SYSTEM    = UTC
MEAN_ELEMENT_THEORY = SGP/SGP4

EPOCH          = 2026-02-05T10:14:26.412576
MEAN_MOTION    = 14.16596027
ECCENTRICITY   = .0009461
INCLINATION    = 71.0013
RA_OF_ASC_NODE = 208.4722
ARG_OF_PERICENTER = 297.5011
MEAN_ANOMALY   = 85.8638

EPHEMERIS_TYPE = 0
CLASSIFICATION_TYPE = U
NORAD_CAT_ID   = 16182
ELEMENT_SET_NO = 999
REV_AT_EPOCH   = 8266
BSTAR          = .64435E-4
MEAN_MOTION_DOT = .81E-6
MEAN_MOTION_DDOT = 0

CCSDS_OMM_VERS = 2.0
CREATION_DATE  = 
ORIGINATOR     = 

OBJECT_NAME    = SL-14 R/B
OBJECT_ID      = 1986-006B
CENTER_NAME    = EARTH
REF_FRAME      = TEME
TIME_SYSTEM    = UTC
MEAN_ELEMENT_THEORY = SGP/SGP4

EPOCH          = 2026-02-05T10:02:16.077696
MEAN_MOTION    = 14.86770244
ECCENTRICITY   = .0077229
INCLINATION    = 82.5273
RA_OF_ASC_NODE = 290.1113
ARG_OF_PERICENTER = 20.7926
MEAN_ANOMALY   = 339.6401

EPHEMERIS_TYPE = 0
CLASSIFICATION_TYPE = U
NORAD_CAT_ID   = 16496
ELEMENT_SET_NO = 999
REV_AT_EPOCH   = 14441
BSTAR          = .10931E-3
MEAN_MOTION_DOT = .1054E-4
MEAN_MOTION_DDOT = 0

CCSDS_OMM_VERS = 2.0
CREATION_DATE  = 
ORIGINATOR     = 

OBJECT_NAME    = COSMOS 1743
OBJECT_ID      = 1986-034A
CENTER_NAME    = EARTH
REF_FRAME      = TEME
TIME_SYSTEM    = UTC
MEAN_ELEMENT_THEORY = SGP/SGP4

EPOCH          = 2026-02-05T10:48:54.036288
MEAN_MOTION    = 15.56220202
ECCENTRICITY   = .0005214
INCLINATION    = 82.5330
RA_OF_ASC_NODE = 107.6021
ARG_OF_PERICENTER = 60.5341
MEAN_ANOMALY   = 299.6433

EPHEMERIS_TYPE = 0
CLASSIFICATION_TYPE = U
NORAD_CAT_ID   = 16719
ELEMENT_SET_NO = 999
REV_AT_EPOCH   = 17523
BSTAR          = .70529E-3
MEAN_MOTION_DOT = .49714E-3
MEAN_MOTION_DDOT = 0

